COSMOS 2242             
1 22626U 93024A   25355.46407910  .00001654  00000+0  14439-3 0  9996
2 22626  82.5186 341.5053 0015537 202.8193 157.2340 14.96138900768696
SL-16 R/B               
1 22803U 93059B   25355.83720622  .00000181  00000+0  11348-3 0  9990
2 22803  70.9879 175.3017 0018415 322.8218  37.1629 14.17213912668500
ARIANE 40 R/B           
1 22830U 93061H   25355.76643269  .00000200  00000+0  89084-4 0  9991
2 22830  98.5065  61.1318 0011376 150.2339 209.9494 14.32806910682941
COSMOS 2278             
1 23087U 94023A   25355.65944363 -.00000114  00000+0 -34676-4 0  9995
2 23087  71.0534 338.3489 0007902 163.8255 196.3121 14.14348121633776
SL-16 R/B               
1 23088U 94023B   25355.74143610 -.00000241  00000+0 -99583-4 0  9991
2 23088  70.9987 234.5826 0001895   7.1837 352.9312 14.15001010635060
SL-16 R/B               
1 23343U 94074B   25355.61340912  .00000379  00000+0  57589-4 0  9991
2 23343  97.7191  24.5650 0007974 111.4408   2.5313 14.79299050675704
SL-16 R/B               
1 23405U 94077B   25355.75346012 -.00000092  00000+0 -22339-4 0  9994
2 23405  70.9820 156.4511 0004980 278.1293  81.9265 14.15552875605205
ARIANE 40+ R/B          
1 23561U 95021B   25355.64422875  .00000251  00000+0  94265-4 0  9999
2 23561  98.4640  63.1254 0007035  25.3593  96.6757 14.39701727608019
SL-16 R/B               
1 23705U 95058B   25355.68592567 -.00000254  00000+0 -10538-3 0  9994
2 23705  71.0219 344.0218 0014819 243.6679 116.2922 14.15482430556811
SL-16 R/B               
1 24298U 96051B   25355.41220722 -.00000047  00000+0  15294-5 0  9993
2 24298  70.7595 340.9265 0019480 250.7405 109.1608 14.12397302510591
